GLOBALSTAR M070 [+]     
1 32264U 07048B   24018.82409841 -.00000073  00000+0  17387-3 0  9996
2 32264  51.9738 258.4660 0001261  60.5941  17.4119 12.62285038748580
GLOBALSTAR M068 [-]     
1 32266U 07048D   24019.10960516 -.00000065  00000+0  21308-3 0  9990
2 32266  51.9892  72.3220 0001256 103.9852 273.7900 12.62776672752775
GLOBALSTAR M079 [+]     
1 37188U 10054A   24019.10766406 -.00000081  00000+0  12550-3 0  9998
2 37188  52.0034 267.7732 0000646  65.9676  98.5640 12.62265852612080
GLOBALSTAR M074 [+]     
1 37189U 10054B   24018.88859429 -.00000079  00000+0  13567-3 0  9997
2 37189  52.0011 267.8427 0000915  65.5976  62.6927 12.62264485612054
GLOBALSTAR M076 [+]     
1 37190U 10054C   24018.90475653 -.00000083  00000+0  11644-3 0  9994
2 37190  52.0025 267.9212 0000792  25.0767  54.5823 12.62257885611708
GLOBALSTAR M077 [+]     
1 37191U 10054D   24018.89721601 -.00000083  00000+0  11481-3 0  9999
2 37191  52.0043 224.6495 0001106  77.3744  28.6810 12.62268886612079
